[{"OBJECT_NAME":"YAOGAN-31 03A","OBJECT_ID":"2021-014A","EPOCH":"2026-03-10T00:24:06.247008","MEAN_MOTION":13.45441662,"ECCENTRICITY":0.01684055,"INCLINATION":63.4026,"RA_OF_ASC_NODE":92.704,"ARG_OF_PERICENTER":0.2198,"MEAN_ANOMALY":359.8873,"EPHEMERIS_TYPE":0,"CLASSIFICATION_TYPE":"U","NORAD_CAT_ID":47691,"ELEMENT_SET_NO":999,"REV_AT_EPOCH":24743,"BSTAR":0.00052010805,"MEAN_MOTION_DOT":2.46e-6,"MEAN_MOTION_DDOT":0},{"OBJECT_NAME":"ONEWEB-0647","OBJECT_ID":"2023-043AK","EPOCH":"2026-03-09T15:24:41.498208","MEAN_MOTION":13.15547727,"ECCENTRICITY":0.0001507,"INCLINATION":87.8935,"RA_OF_ASC_NODE":279.1054,"ARG_OF_PERICENTER":95.1076,"MEAN_ANOMALY":265.0226,"EPHEMERIS_TYPE":0,"CLASSIFICATION_TYPE":"U","NORAD_CAT_ID":56079,"ELEMENT_SET_NO":999,"REV_AT_EPOCH":14333,"BSTAR":0.0004363,"MEAN_MOTION_DOT":1.77e-6,"MEAN_MOTION_DDOT":0}]
